GSAT0227 (GALILEO 30)
1 59600U 24079C   25351.74918490 -.00000009  00000+0  00000+0 0  9998
2 59600  54.9996 106.1542 0002970 116.5176 243.4717  1.70474900 10278